NORAD_CAT_ID,OBJECT_NAME,OBJECT_TYPE,EPOCH,MEAN_MOTION,ECCENTRICITY,INCLINATION,RA_OF_ASC_NODE,ARG_OF_PERICENTER,MEAN_ANOMALY,BSTAR,MEAN_MOTION_DOT,MEAN_MOTION_DDOT,TLE_LINE0,TLE_LINE1,TLE_LINE2,SEMIMAJOR_AXIS,PERIOD,APOGEE,PERIGEE,DECAYED
53278.0,STARLINK-4180,PAYLOAD,2022-12-15 13:19:41,15.08832973,0.0001941,53.2183,81.9634,34.7781,325.3338,-6.6721e-05,-1.35e-05,0.0,0 STARLINK-4180,1 53278U 22086AN  22349.55533668 -.00001350  00000-0 -66721-4 0  9991,2 53278  53.2183  81.9634 0001941  34.7781 325.3338 15.08832973 23036,6917.901999999999,95.438,541.11,538.424,0.0
53278.0,STARLINK-4180,PAYLOAD,2022-12-15 14:55:04,15.08831932,0.0001834,53.2191,81.6646,38.5675,321.5447,-6.9983e-05,-1.401e-05,0.0,0 STARLINK-4180,1 53278U 22086AN  22349.62157732 -.00001401  00000-0 -69983-4 0  9993,2 53278  53.2191  81.6646 0001834  38.5675 321.5447 15.08831932 22874,6917.905,95.438,541.039,538.501,0.0
53278.0,STARLINK-4180,PAYLOAD,2022-12-15 16:30:27,15.08831669,0.0001845,53.2191,81.3676,38.3356,321.7767,-7.386199999999999e-05,-1.463e-05,0.0,0 STARLINK-4180,1 53278U 22086AN  22349.68781795 -.00001463  00000-0 -73862-4 0  9990,2 53278  53.2191  81.3676 0001845  38.3356 321.7767 15.08831669 23055,6917.906,95.438,541.047,538.494,0.0
53278.0,STARLINK-4180,PAYLOAD,2022-12-16 13:10:28,15.08831098,0.0001971,53.2181,77.5033,32.0385,328.0727,6.2768e-05,7.11e-06,0.0,0 STARLINK-4180,1 53278U 22086AN  22350.54893585  .00000711  00000-0  62768-4 0  9994,2 53278  53.2181  77.5033 0001971  32.0385 328.0727 15.08831098 23187,6917.908,95.438,541.136,538.409,0.0
53278.0,STARLINK-4180,PAYLOAD,2022-12-16 16:21:14,15.08828022,0.0002069,53.2177,76.9091,27.4496,332.6605,4.1318e-05,3.69e-06,0.0,0 STARLINK-4180,1 53278U 22086AN  22350.68142003  .00000369  00000-0  41318-4 0  9998,2 53278  53.2177  76.9091 0002069  27.4496 332.6605 15.08828022 23032,6917.917,95.438,541.2130000000002,538.351,0.0
53278.0,STARLINK-4180,PAYLOAD,2022-12-17 13:01:15,15.08827955,0.0002092,53.2178,73.0428,30.9593,329.1522,2.7439e-05,1.48e-06,0.0,0 STARLINK-4180,1 53278U 22086AN  22351.54254544  .00000148  00000-0  27439-4 0  9991,2 53278  53.2178  73.0428 0002092  30.9593 329.1522 15.08827955 23334,6917.917,95.438,541.229,538.335,0.0
53278.0,STARLINK-4180,PAYLOAD,2022-12-18 04:55:07,15.0883313,0.0002319,53.2195,70.0694,40.8178,319.2988,1.5280999999999998e-05,-4.5e-07,0.0,0 STARLINK-4180,1 53278U 22086AN  22352.20494664 -.00000045  00000-0  15281-4 0  9993,2 53278  53.2195  70.0694 0002319  40.8178 319.2988 15.08833130 23266,6917.901,95.438,541.371,538.1619999999998,0.0
53278.0,STARLINK-4180,PAYLOAD,2022-12-18 11:16:40,15.08831988,0.0002265,53.2191,68.88,39.8625,320.2534,1.2028e-05,-9.7e-07,0.0,0 STARLINK-4180,1 53278U 22086AN  22352.46990842 -.00000097  00000-0  12028-4 0  9993,2 53278  53.2191  68.8800 0002265  39.8625 320.2534 15.08831988 23472,6917.905,95.438,541.337,538.203,0.0
53278.0,STARLINK-4180,PAYLOAD,2022-12-18 14:27:26,15.08832027,0.0002258,53.218,68.285,37.2849,322.83,2.3603e-05,8.7e-07,0.0,0 STARLINK-4180,1 53278U 22086AN  22352.60238836  .00000087  00000-0  23603-4 0  9996,2 53278  53.2180  68.2850 0002258  37.2849 322.8300 15.08832027 23497,6917.905,95.438,541.332,538.2080000000002,0.0
53278.0,STARLINK-4180,PAYLOAD,2022-12-19 11:07:27,15.08831696,0.0002384,53.217,64.4198,21.1201,338.9889,0.00011094,1.477e-05,0.0,0 STARLINK-4180,1 53278U 22086AN  22353.46350852  .00001477  00000-0  11094-3 0  9998,2 53278  53.2170  64.4198 0002384  21.1201 338.9889 15.08831696 23450,6917.906,95.438,541.42,538.122,0.0
53278.0,STARLINK-4180,PAYLOAD,2022-12-19 14:18:13,15.08839166,0.0002213,53.2178,63.8234,38.4775,321.6374,8.426e-05,1.053e-05,0.0,0 STARLINK-4180,1 53278U 22086AN  22353.59598517  .00001053  00000-0  84260-4 0  9990,2 53278  53.2178  63.8234 0002213  38.4775 321.6374 15.08839166 23649,6917.8830000000025,95.438,541.279,538.217,0.0
53278.0,STARLINK-4180,PAYLOAD,2022-12-19 22:15:08,15.08845229,0.0002364,53.2189,62.3383,37.9,322.2158,5.6042e-05,6.04e-06,0.0,0 STARLINK-4180,1 53278U 22086AN  22353.92718251  .00000604  00000-0  56042-4 0  9994,2 53278  53.2189  62.3383 0002364  37.9000 322.2158 15.08845229 23523,6917.864000000001,95.437,541.365,538.094,0.0
53278.0,STARLINK-4180,PAYLOAD,2022-12-20 10:58:12,15.08856211,0.0002433,53.2181,59.9588,36.3015,323.8142,0.00017129,2.44e-05,0.0,0 STARLINK-4180,1 53278U 22086AN  22354.45708690  .00002440  00000-0  17129-3 0  9991,2 53278  53.2181  59.9588 0002433  36.3015 323.8142 15.08856211 23602,6917.831,95.437,541.379,538.013,0.0
53278.0,STARLINK-4180,PAYLOAD,2022-12-21 04:27:28,15.08841246,0.0002297,53.2188,56.6886,38.7305,321.3852,-8.7942e-05,-1.688e-05,0.0,0 STARLINK-4180,1 53278U 22086AN  22355.18574429 -.00001688  00000-0 -87942-4 0  9999,2 53278  53.2188  56.6886 0002297  38.7305 321.3852 15.08841246 23715,6917.877,95.437,541.331,538.153,0.0
53278.0,STARLINK-4180,PAYLOAD,2022-12-21 10:49:01,15.08834349,0.0002146,53.2176,55.4958,31.1938,328.9181,-0.00016796,-2.9600000000000005e-05,0.0,0 STARLINK-4180,1 53278U 22086AN  22355.45071103 -.00002960  00000-0 -16796-3 0  9992,2 53278  53.2176  55.4958 0002146  31.1938 328.9181 15.08834349 23759,6917.898,95.438,541.247,538.278,0.0
53278.0,STARLINK-4180,PAYLOAD,2022-12-22 10:39:48,15.08838468,0.0002274,53.2186,51.0373,30.4455,329.6669,-0.00014454,-2.588e-05,0.0,0 STARLINK-4180,1 53278U 22086AN  22356.44431106 -.00002588  00000-0 -14454-3 0  9990,2 53278  53.2186  51.0373 0002274  30.4455 329.6669 15.08838468 23903,6917.885,95.438,541.323,538.177,0.0
53278.0,STARLINK-4180,PAYLOAD,2022-12-22 15:25:57,15.08841685,0.0002272,53.2187,50.1449,31.3061,328.8066,-0.00010249,-1.919e-05,0.0,0 STARLINK-4180,1 53278U 22086AN  22356.64302782 -.00001919  00000-0 -10249-3 0  9994,2 53278  53.2187  50.1449 0002272  31.3061 328.8066 15.08841685 24109,6917.875,95.437,541.312,538.168,0.0
53278.0,STARLINK-4180,PAYLOAD,2022-12-23 10:30:35,15.0882721,0.0002304,53.2187,46.5766,28.5735,331.5383,7.375800000000001e-05,8.85e-06,0.0,0 STARLINK-4180,1 53278U 22086AN  22357.43791341  .00000885  00000-0  73758-4 0  9999,2 53278  53.2187  46.5766 0002304  28.5735 331.5383 15.08827210 24226,6917.919,95.438,541.378,538.191,0.0
53278.0,STARLINK-4180,PAYLOAD,2022-12-23 15:16:45,15.08824637,0.0002304,53.2192,45.6853,26.6753,333.4357,6.5276e-05,7.4999999999999985e-06,0.0,0 STARLINK-4180,1 53278U 22086AN  22357.63663723  .00000750  00000-0  65276-4 0  9990,2 53278  53.2192  45.6853 0002304  26.6753 333.4357 15.08824637 24253,6917.927,95.439,541.386,538.198,0.0
53278.0,STARLINK-4180,PAYLOAD,2022-12-24 05:35:13,15.08838657,0.0002356,53.2184,43.0092,29.3895,330.7229,3.7878e-05,3.15e-06,0.0,0 STARLINK-4180,1 53278U 22086AN  22358.23279410  .00000315  00000-0  37878-4 0  9997,2 53278  53.2184  43.0092 0002356  29.3895 330.7229 15.08838657 24171,6917.884,95.438,541.379,538.12,0.0
53278.0,STARLINK-4180,PAYLOAD,2022-12-24 10:21:22,15.0884376,0.0002361,53.2182,42.1174,30.4175,329.6953,7.6762e-05,9.34e-06,0.0,0 STARLINK-4180,1 53278U 22086AN  22358.43150942  .00000934  00000-0  76762-4 0  9999,2 53278  53.2182  42.1174 0002361  30.4175 329.6953 15.08843760 24374,6917.869000000002,95.437,541.367,538.101,0.0
53278.0,STARLINK-4180,PAYLOAD,2022-12-24 19:53:41,15.08837529,0.0002285,53.2178,40.3339,29.8612,330.2511,4.812e-05,4.78e-06,0.0,0 STARLINK-4180,1 53278U 22086AN  22358.82895397  .00000478  00000-0  48120-4 0  9992,2 53278  53.2178  40.3339 0002285  29.8612 330.2511 15.08837529 24436,6917.888000000001,95.438,541.3340000000002,538.172,0.0
53278.0,STARLINK-4180,PAYLOAD,2022-12-25 11:47:33,15.08837995,0.0002432,53.2186,37.3596,34.2286,325.8863,2.7284e-05,1.46e-06,0.0,0 STARLINK-4180,1 53278U 22086AN  22359.49135454  .00000146  00000-0  27284-4 0  9997,2 53278  53.2186  37.3596 0002432  34.2286 325.8863 15.08837995 24366,6917.887,95.438,541.434,538.069,0.0
53278.0,STARLINK-4180,PAYLOAD,2022-12-25 19:44:28,15.08838342,0.0002494,53.2185,35.8727,31.9965,328.1179,7.7396e-05,9.44e-06,0.0,0 STARLINK-4180,1 53278U 22086AN  22359.82255268  .00000944  00000-0  77396-4 0  9995,2 53278  53.2185  35.8727 0002494  31.9965 328.1179 15.08838342 24587,6917.885,95.438,541.476,538.025,0.0
53278.0,STARLINK-4180,PAYLOAD,2022-12-26 11:38:20,15.08843722,0.0002552,53.2187,32.8996,33.8926,326.2229,-7.1448e-05,-1.426e-05,0.0,0 STARLINK-4180,1 53278U 22086AN  22360.48495506 -.00001426  00000-0 -71448-4 0  9990,2 53278  53.2187  32.8996 0002552  33.8926 326.2229 15.08843722 24681,6917.869000000002,95.437,541.499,537.969,0.0
53278.0,STARLINK-4180,PAYLOAD,2022-12-27 01:56:48,15.08839178,0.0002585,53.2188,30.2234,34.2927,325.8232,-5.4874e-06,-3.76e-06,0.0,0 STARLINK-4180,1 53278U 22086AN  22361.08111525 -.00000376  00000-0 -54874-5 0  9991,2 53278  53.2188  30.2234 0002585  34.2927 325.8232 15.08839178 24602,6917.8830000000025,95.438,541.536,537.96,0.0
53278.0,STARLINK-4180,PAYLOAD,2022-12-27 11:29:06,15.08848877,0.0002644,53.2188,28.44,35.7415,324.3753,9.8414e-05,1.279e-05,0.0,0 STARLINK-4180,1 53278U 22086AN  22361.47854438  .00001279  00000-0  98414-4 0  9999,2 53278  53.2188  28.4400 0002644  35.7415 324.3753 15.08848877 24664,6917.853,95.437,541.547,537.889,0.0
53278.0,STARLINK-4180,PAYLOAD,2022-12-28 00:12:10,15.08856597,0.0002603,53.2189,26.0612,36.2696,323.8472,0.00011067,1.474e-05,0.0,0 STARLINK-4180,1 53278U 22086AN  22362.00845438  .00001474  00000-0  11067-3 0  9994,2 53278  53.2189  26.0612 0002603  36.2696 323.8472 15.08856597 24745,6917.83,95.437,541.495,537.894,0.0
53278.0,STARLINK-4180,PAYLOAD,2022-12-28 11:19:53,15.08849943,0.0002647,53.2185,23.9798,38.9083,321.21,-2.4344e-05,-6.76e-06,0.0,0 STARLINK-4180,1 53278U 22086AN  22362.47214266 -.00000676  00000-0 -24344-4 0  9992,2 53278  53.2185  23.9798 0002647  38.9083 321.2100 15.08849943 24814,6917.85,95.437,541.5459999999998,537.884,0.0
